{
"type": "FeatureCollection",
"name": "stations",
"crs": { "type": "name", "properties": { "name": "urn:ogc:def:crs:OGC:1.3:CRS84" } },
"features": [
{ "type": "Feature", "properties": { "network": "SCAN", "station": "AAMU-JTG", "lat": 34.78534, "lon": -86.55906 }, "geometry": { "type": "Point", "coordinates": [ -86.55906, 34.78534 ] } },
{ "type": "Feature", "properties": { "network": "USCRN", "station": "Aberdeen-35-WNW", "lat": 45.7115, "lon": -99.1296 }, "geometry": { "type": "Point", "coordinates": [ -99.1296, 45.7115 ] } },
{ "type": "Feature", "properties": { "network": "SCAN", "station": "Abrams", "lat": 37.1313, "lon": -97.0859 }, "geometry": { "type": "Point", "coordinates": [ -97.0859, 37.1313 ] } },
{ "type": "Feature", "properties": { "network": "SCAN", "station": "AdamsRanch#1", "lat": 32.25296, "lon": -105.41975 }, "geometry": { "type": "Point", "coordinates": [ -105.41975, 32.25296 ] } },
{ "type": "Feature", "properties": { "network": "SCAN", "station": "Alcalde", "lat": 36.0908, "lon": -106.05668 }, "geometry": { "type": "Point", "coordinates": [ -106.05668, 36.0908 ] } },
{ "type": "Feature", "properties": { "network": "SCAN", "station": "AlkaliMesa", "lat": 37.67455, "lon": -109.36429 }, "geometry": { "type": "Point", "coordinates": [ -109.36429, 37.67455 ] } },
{ "type": "Feature", "properties": { "network": "SCAN", "station": "AllenFarms", "lat": 35.0747, "lon": -86.8938 }, "geometry": { "type": "Point", "coordinates": [ -86.8938, 35.0747 ] } },
{ "type": "Feature", "properties": { "network": "SCAN", "station": "Ames", "lat": 42.01667, "lon": -93.73333 }, "geometry": { "type": "Point", "coordinates": [ -93.73333, 42.01667 ] } },
{ "type": "Feature", "properties": { "network": "USCRN", "station": "Arco-17-SW", "lat": 43.4621, "lon": -113.556 }, "geometry": { "type": "Point", "coordinates": [ -113.556, 43.4621 ] } },
{ "type": "Feature", "properties": { "network": "SCAN", "station": "AshValley", "lat": 41.05204, "lon": -120.6872 }, "geometry": { "type": "Point", "coordinates": [ -120.6872, 41.05204 ] } },
{ "type": "Feature", "properties": { "network": "USCRN", "station": "Asheville-13-S", "lat": 35.4185, "lon": -82.5567 }, "geometry": { "type": "Point", "coordinates": [ -82.5567, 35.4185 ] } },
{ "type": "Feature", "properties": { "network": "USCRN", "station": "Asheville-8-SSW", "lat": 35.4945, "lon": -82.6142 }, "geometry": { "type": "Point", "coordinates": [ -82.6142, 35.4945 ] } },
{ "type": "Feature", "properties": { "network": "USCRN", "station": "Austin-33-NW", "lat": 30.6222, "lon": -98.0846 }, "geometry": { "type": "Point", "coordinates": [ -98.0846, 30.6222 ] } },
{ "type": "Feature", "properties": { "network": "USCRN", "station": "Avondale-2-N", "lat": 39.8593, "lon": -75.7861 }, "geometry": { "type": "Point", "coordinates": [ -75.7861, 39.8593 ] } },
{ "type": "Feature", "properties": { "network": "USCRN", "station": "Baker-5-W", "lat": 39.0118, "lon": -114.209 }, "geometry": { "type": "Point", "coordinates": [ -114.209, 39.0118 ] } },
{ "type": "Feature", "properties": { "network": "USCRN", "station": "Batesville-8-WNW", "lat": 35.8201, "lon": -91.7812 }, "geometry": { "type": "Point", "coordinates": [ -91.7812, 35.8201 ] } },
{ "type": "Feature", "properties": { "network": "SCAN", "station": "BeasleyLake", "lat": 33.38333, "lon": -90.65 }, "geometry": { "type": "Point", "coordinates": [ -90.65, 33.38333 ] } },
{ "type": "Feature", "properties": { "network": "SCAN", "station": "Beaumont", "lat": 30.06845, "lon": -94.29283 }, "geometry": { "type": "Point", "coordinates": [ -94.29283, 30.06845 ] } },
{ "type": "Feature", "properties": { "network": "USCRN", "station": "Bedford-5-WNW", "lat": 38.8882, "lon": -86.5707 }, "geometry": { "type": "Point", "coordinates": [ -86.5707, 38.8882 ] } },
{ "type": "Feature", "properties": { "network": "USCRN", "station": "Blackville-3-W", "lat": 33.355, "lon": -81.3279 }, "geometry": { "type": "Point", "coordinates": [ -81.3279, 33.355 ] } },
{ "type": "Feature", "properties": { "network": "SCAN", "station": "BlueCreek", "lat": 41.93531, "lon": -112.4336 }, "geometry": { "type": "Point", "coordinates": [ -112.4336, 41.93531 ] } },
{ "type": "Feature", "properties": { "network": "USCRN", "station": "Bodega-6-WSW", "lat": 38.3208, "lon": -123.0747 }, "geometry": { "type": "Point", "coordinates": [ -123.0747, 38.3208 ] } },
{ "type": "Feature", "properties": { "network": "SCAN", "station": "BodieHills", "lat": 38.26477, "lon": -119.12645 }, "geometry": { "type": "Point", "coordinates": [ -119.12645, 38.26477 ] } },
{ "type": "Feature", "properties": { "network": "USCRN", "station": "Boulder-14-W", "lat": 40.0354, "lon": -105.5409 }, "geometry": { "type": "Point", "coordinates": [ -105.5409, 40.0354 ] } },
{ "type": "Feature", "properties": { "network": "USCRN", "station": "Bowling-Green-21-NNE", "lat": 37.2504, "lon": -86.2325 }, "geometry": { "type": "Point", "coordinates": [ -86.2325, 37.2504 ] } },
{ "type": "Feature", "properties": { "network": "SCAN", "station": "BraggFarm", "lat": 34.89375, "lon": -86.60236 }, "geometry": { "type": "Point", "coordinates": [ -86.60236, 34.89375 ] } },
{ "type": "Feature", "properties": { "network": "USCRN", "station": "Brigham-City-28-WNW", "lat": 41.6163, "lon": -112.5437 }, "geometry": { "type": "Point", "coordinates": [ -112.5437, 41.6163 ] } },
{ "type": "Feature", "properties": { "network": "SCAN", "station": "BroadAcres", "lat": 32.28393, "lon": -86.05253 }, "geometry": { "type": "Point", "coordinates": [ -86.05253, 32.28393 ] } },
{ "type": "Feature", "properties": { "network": "USCRN", "station": "Bronte-11-NNE", "lat": 32.0408, "lon": -100.2495 }, "geometry": { "type": "Point", "coordinates": [ -100.2495, 32.0408 ] } },
{ "type": "Feature", "properties": { "network": "USCRN", "station": "Brunswick-23-S", "lat": 30.8078, "lon": -81.4596 }, "geometry": { "type": "Point", "coordinates": [ -81.4596, 30.8078 ] } },
{ "type": "Feature", "properties": { "network": "SCAN", "station": "Buckhorn", "lat": 40.87959, "lon": -119.9534 }, "geometry": { "type": "Point", "coordinates": [ -119.9534, 40.87959 ] } },
{ "type": "Feature", "properties": { "network": "USCRN", "station": "Buffalo-13-ESE", "lat": 45.516, "lon": -103.3017 }, "geometry": { "type": "Point", "coordinates": [ -103.3017, 45.516 ] } },
{ "type": "Feature", "properties": { "network": "SCAN", "station": "BuffaloJump", "lat": 41.34363, "lon": -111.18798 }, "geometry": { "type": "Point", "coordinates": [ -111.18798, 41.34363 ] } },
{ "type": "Feature", "properties": { "network": "SCAN", "station": "Bushland#1", "lat": 35.16667, "lon": -102.1 }, "geometry": { "type": "Point", "coordinates": [ -102.1, 35.16667 ] } },
{ "type": "Feature", "properties": { "network": "SCAN", "station": "CMRBLTAR-MO", "lat": 39.2285, "lon": -92.11942 }, "geometry": { "type": "Point", "coordinates": [ -92.11942, 39.2285 ] } },
{ "type": "Feature", "properties": { "network": "SCAN", "station": "CPER", "lat": 40.8228, "lon": -104.71068 }, "geometry": { "type": "Point", "coordinates": [ -104.71068, 40.8228 ] } },
{ "type": "Feature", "properties": { "network": "SCAN", "station": "CacheJunction", "lat": 41.81568, "lon": -111.98043 }, "geometry": { "type": "Point", "coordinates": [ -111.98043, 41.81568 ] } },
{ "type": "Feature", "properties": { "network": "USCRN", "station": "Cape-Charles-5-ENE", "lat": 37.2907, "lon": -75.927 }, "geometry": { "type": "Point", "coordinates": [ -75.927, 37.2907 ] } },
{ "type": "Feature", "properties": { "network": "SCAN", "station": "CaveValley", "lat": 37.35524, "lon": -113.12341 }, "geometry": { "type": "Point", "coordinates": [ -113.12341, 37.35524 ] } },
{ "type": "Feature", "properties": { "network": "SCAN", "station": "CentraliaLake", "lat": 39.70045, "lon": -96.1629 }, "geometry": { "type": "Point", "coordinates": [ -96.1629, 39.70045 ] } },
{ "type": "Feature", "properties": { "network": "USCRN", "station": "Champaign-9-SW", "lat": 40.0528, "lon": -88.3729 }, "geometry": { "type": "Point", "coordinates": [ -88.3729, 40.0528 ] } },
{ "type": "Feature", "properties": { "network": "SCAN", "station": "Charkiln", "lat": 36.36651, "lon": -115.82047 }, "geometry": { "type": "Point", "coordinates": [ -115.82047, 36.36651 ] } },
{ "type": "Feature", "properties": { "network": "USCRN", "station": "Charlottesville-2-SSE", "lat": 37.9975, "lon": -78.4656 }, "geometry": { "type": "Point", "coordinates": [ -78.4656, 37.9975 ] } },
{ "type": "Feature", "properties": { "network": "USCRN", "station": "Chatham-1-SE", "lat": 46.3345, "lon": -86.92 }, "geometry": { "type": "Point", "coordinates": [ -86.92, 46.3345 ] } },
{ "type": "Feature", "properties": { "network": "SCAN", "station": "ChickenRidge", "lat": 41.33136, "lon": -111.3036 }, "geometry": { "type": "Point", "coordinates": [ -111.3036, 41.33136 ] } },
{ "type": "Feature", "properties": { "network": "USCRN", "station": "Chillicothe-22-ENE", "lat": 39.8668, "lon": -93.147 }, "geometry": { "type": "Point", "coordinates": [ -93.147, 39.8668 ] } },
{ "type": "Feature", "properties": { "network": "SCAN", "station": "Circleville", "lat": 38.15133, "lon": -112.25122 }, "geometry": { "type": "Point", "coordinates": [ -112.25122, 38.15133 ] } },
{ "type": "Feature", "properties": { "network": "SCAN", "station": "CochoraRanch", "lat": 35.11807, "lon": -119.59608 }, "geometry": { "type": "Point", "coordinates": [ -119.59608, 35.11807 ] } },
{ "type": "Feature", "properties": { "network": "SCAN", "station": "ConradAgRc", "lat": 48.30453, "lon": -111.92363 }, "geometry": { "type": "Point", "coordinates": [ -111.92363, 48.30453 ] } },
{ "type": "Feature", "properties": { "network": "SCAN", "station": "CookFarmFieldD", "lat": 46.78373, "lon": -117.08008 }, "geometry": { "type": "Point", "coordinates": [ -117.08008, 46.78373 ] } },
{ "type": "Feature", "properties": { "network": "USCRN", "station": "Coos-Bay-8-SW", "lat": 43.2718, "lon": -124.3186 }, "geometry": { "type": "Point", "coordinates": [ -124.3186, 43.2718 ] } },
{ "type": "Feature", "properties": { "network": "USCRN", "station": "Cortez-8-SE", "lat": 37.2553, "lon": -108.5035 }, "geometry": { "type": "Point", "coordinates": [ -108.5035, 37.2553 ] } },
{ "type": "Feature", "properties": { "network": "USCRN", "station": "Corvallis-10-SSW", "lat": 44.4185, "lon": -123.3257 }, "geometry": { "type": "Point", "coordinates": [ -123.3257, 44.4185 ] } },
{ "type": "Feature", "properties": { "network": "USCRN", "station": "Coshocton-8-NNE", "lat": 40.3667, "lon": -81.7829 }, "geometry": { "type": "Point", "coordinates": [ -81.7829, 40.3667 ] } },
{ "type": "Feature", "properties": { "network": "SCAN", "station": "CrescentLake#1", "lat": 45.41667, "lon": -93.95 }, "geometry": { "type": "Point", "coordinates": [ -93.95, 45.41667 ] } },
{ "type": "Feature", "properties": { "network": "SCAN", "station": "Crossroads", "lat": 33.53513, "lon": -103.242 }, "geometry": { "type": "Point", "coordinates": [ -103.242, 33.53513 ] } },
{ "type": "Feature", "properties": { "network": "USCRN", "station": "Crossville-7-NW", "lat": 36.0138, "lon": -85.1345 }, "geometry": { "type": "Point", "coordinates": [ -85.1345, 36.0138 ] } },
{ "type": "Feature", "properties": { "network": "SCAN", "station": "Cullman-NAHRC", "lat": 34.19492, "lon": -86.79897 }, "geometry": { "type": "Point", "coordinates": [ -86.79897, 34.19492 ] } },
{ "type": "Feature", "properties": { "network": "USCRN", "station": "Darrington-21-NNE", "lat": 48.5405, "lon": -121.446 }, "geometry": { "type": "Point", "coordinates": [ -121.446, 48.5405 ] } },
{ "type": "Feature", "properties": { "network": "SCAN", "station": "DeathValleyJct", "lat": 36.32502, "lon": -116.35132 }, "geometry": { "type": "Point", "coordinates": [ -116.35132, 36.32502 ] } },
{ "type": "Feature", "properties": { "network": "SCAN", "station": "DeeRiverRanch", "lat": 33.10768, "lon": -88.31003 }, "geometry": { "type": "Point", "coordinates": [ -88.31003, 33.10768 ] } },
{ "type": "Feature", "properties": { "network": "SCAN", "station": "DeepSprings", "lat": 37.37222, "lon": -117.97383 }, "geometry": { "type": "Point", "coordinates": [ -117.97383, 37.37222 ] } },
{ "type": "Feature", "properties": { "network": "USCRN", "station": "Denio-52-WSW", "lat": 41.8484, "lon": -119.6357 }, "geometry": { "type": "Point", "coordinates": [ -119.6357, 41.8484 ] } },
{ "type": "Feature", "properties": { "network": "USCRN", "station": "Des-Moines-17-E", "lat": 41.5562, "lon": -93.2855 }, "geometry": { "type": "Point", "coordinates": [ -93.2855, 41.5562 ] } },
{ "type": "Feature", "properties": { "network": "SCAN", "station": "DesertCenter", "lat": 33.80208, "lon": -115.30505 }, "geometry": { "type": "Point", "coordinates": [ -115.30505, 33.80208 ] } },
{ "type": "Feature", "properties": { "network": "SCAN", "station": "Dexter", "lat": 36.78333, "lon": -89.93333 }, "geometry": { "type": "Point", "coordinates": [ -89.93333, 36.78333 ] } },
{ "type": "Feature", "properties": { "network": "USCRN", "station": "Dillon-18-WSW", "lat": 45.158, "lon": -113.0057 }, "geometry": { "type": "Point", "coordinates": [ -113.0057, 45.158 ] } },
{ "type": "Feature", "properties": { "network": "USCRN", "station": "Dinosaur-2-E", "lat": 40.2446, "lon": -108.9677 }, "geometry": { "type": "Point", "coordinates": [ -108.9677, 40.2446 ] } },
{ "type": "Feature", "properties": { "network": "SCAN", "station": "DoeRidge", "lat": 37.63423, "lon": -118.82643 }, "geometry": { "type": "Point", "coordinates": [ -118.82643, 37.63423 ] } },
{ "type": "Feature", "properties": { "network": "USCRN", "station": "Durham-11-W", "lat": 35.9705, "lon": -79.0931 }, "geometry": { "type": "Point", "coordinates": [ -79.0931, 35.9705 ] } },
{ "type": "Feature", "properties": { "network": "USCRN", "station": "Durham-2-N", "lat": 43.1716, "lon": -70.9277 }, "geometry": { "type": "Point", "coordinates": [ -70.9277, 43.1716 ] } },
{ "type": "Feature", "properties": { "network": "USCRN", "station": "Durham-2-SSW", "lat": 43.1092, "lon": -70.9484 }, "geometry": { "type": "Point", "coordinates": [ -70.9484, 43.1092 ] } },
{ "type": "Feature", "properties": { "network": "SCAN", "station": "EagleLake", "lat": 40.6175, "lon": -120.72472 }, "geometry": { "type": "Point", "coordinates": [ -120.72472, 40.6175 ] } },
{ "type": "Feature", "properties": { "network": "SCAN", "station": "Eastland", "lat": 37.77853, "lon": -109.17193 }, "geometry": { "type": "Point", "coordinates": [ -109.17193, 37.77853 ] } },
{ "type": "Feature", "properties": { "network": "SCAN", "station": "EastviewFarm", "lat": 35.13905, "lon": -86.19113 }, "geometry": { "type": "Point", "coordinates": [ -86.19113, 35.13905 ] } },
{ "type": "Feature", "properties": { "network": "USCRN", "station": "Edinburg-17-NNE", "lat": 26.5258, "lon": -98.0633 }, "geometry": { "type": "Point", "coordinates": [ -98.0633, 26.5258 ] } },
{ "type": "Feature", "properties": { "network": "USCRN", "station": "Elgin-5-S", "lat": 31.5907, "lon": -110.5087 }, "geometry": { "type": "Point", "coordinates": [ -110.5087, 31.5907 ] } },
{ "type": "Feature", "properties": { "network": "USCRN", "station": "Elkins-21-ENE", "lat": 39.013, "lon": -79.4743 }, "geometry": { "type": "Point", "coordinates": [ -79.4743, 39.013 ] } },
{ "type": "Feature", "properties": { "network": "SCAN", "station": "ElsberryPMC", "lat": 39.15306, "lon": -90.78278 }, "geometry": { "type": "Point", "coordinates": [ -90.78278, 39.15306 ] } },
{ "type": "Feature", "properties": { "network": "SCAN", "station": "Enterprise", "lat": 37.63343, "lon": -113.64324 }, "geometry": { "type": "Point", "coordinates": [ -113.64324, 37.63343 ] } },
{ "type": "Feature", "properties": { "network": "SCAN", "station": "Ephraim", "lat": 39.36798, "lon": -111.57803 }, "geometry": { "type": "Point", "coordinates": [ -111.57803, 39.36798 ] } },
{ "type": "Feature", "properties": { "network": "SCAN", "station": "ErosDataCenter", "lat": 43.73835, "lon": -96.61455 }, "geometry": { "type": "Point", "coordinates": [ -96.61455, 43.73835 ] } },
{ "type": "Feature", "properties": { "network": "SCAN", "station": "Essex", "lat": 34.67235, "lon": -115.16693 }, "geometry": { "type": "Point", "coordinates": [ -115.16693, 34.67235 ] } },
{ "type": "Feature", "properties": { "network": "USCRN", "station": "Everglades-City-5-NE", "lat": 25.8996, "lon": -81.3183 }, "geometry": { "type": "Point", "coordinates": [ -81.3183, 25.8996 ] } },
{ "type": "Feature", "properties": { "network": "SCAN", "station": "EvergladesARS", "lat": 25.5, "lon": -80.55 }, "geometry": { "type": "Point", "coordinates": [ -80.55, 25.5 ] } },
{ "type": "Feature", "properties": { "network": "USCRN", "station": "Fairhope-3-NE", "lat": 30.5485, "lon": -87.8757 }, "geometry": { "type": "Point", "coordinates": [ -87.8757, 30.5485 ] } },
{ "type": "Feature", "properties": { "network": "USCRN", "station": "Fallbrook-5-NE", "lat": 33.4392, "lon": -117.1904 }, "geometry": { "type": "Point", "coordinates": [ -117.1904, 33.4392 ] } },
{ "type": "Feature", "properties": { "network": "SCAN", "station": "FordDryLake", "lat": 33.6547, "lon": -115.09763 }, "geometry": { "type": "Point", "coordinates": [ -115.09763, 33.6547 ] } },
{ "type": "Feature", "properties": { "network": "SCAN", "station": "FortAssiniboine#1", "lat": 48.48333, "lon": -109.8 }, "geometry": { "type": "Point", "coordinates": [ -109.8, 48.48333 ] } },
{ "type": "Feature", "properties": { "network": "SCAN", "station": "FortReno#1", "lat": 35.55, "lon": -98.01667 }, "geometry": { "type": "Point", "coordinates": [ -98.01667, 35.55 ] } },
{ "type": "Feature", "properties": { "network": "SCAN", "station": "FrenchGulch", "lat": 40.79361, "lon": -122.55083 }, "geometry": { "type": "Point", "coordinates": [ -122.55083, 40.79361 ] } },
{ "type": "Feature", "properties": { "network": "USCRN", "station": "Gadsden-19-N", "lat": 34.2851, "lon": -85.9621 }, "geometry": { "type": "Point", "coordinates": [ -85.9621, 34.2851 ] } },
{ "type": "Feature", "properties": { "network": "USCRN", "station": "Gaylord-9-SSW", "lat": 44.908, "lon": -84.7203 }, "geometry": { "type": "Point", "coordinates": [ -84.7203, 44.908 ] } },
{ "type": "Feature", "properties": { "network": "SCAN", "station": "Geneva#1", "lat": 42.88333, "lon": -77.03333 }, "geometry": { "type": "Point", "coordinates": [ -77.03333, 42.88333 ] } },
{ "type": "Feature", "properties": { "network": "SCAN", "station": "GlacialRidge", "lat": 47.71667, "lon": -96.26667 }, "geometry": { "type": "Point", "coordinates": [ -96.26667, 47.71667 ] } },
{ "type": "Feature", "properties": { "network": "USCRN", "station": "Goodridge-12-NNW", "lat": 48.3055, "lon": -95.8744 }, "geometry": { "type": "Point", "coordinates": [ -95.8744, 48.3055 ] } },
{ "type": "Feature", "properties": { "network": "USCRN", "station": "Goodwell-2-E", "lat": 36.5993, "lon": -101.595 }, "geometry": { "type": "Point", "coordinates": [ -101.595, 36.5993 ] } },
{ "type": "Feature", "properties": { "network": "USCRN", "station": "Goodwell-2-SE", "lat": 36.5682, "lon": -101.6097 }, "geometry": { "type": "Point", "coordinates": [ -101.6097, 36.5682 ] } },
{ "type": "Feature", "properties": { "network": "SCAN", "station": "GoodwinCkPasture", "lat": 34.25, "lon": -89.86667 }, "geometry": { "type": "Point", "coordinates": [ -89.86667, 34.25 ] } },
{ "type": "Feature", "properties": { "network": "SCAN", "station": "GoodwinCkTimber", "lat": 34.23333, "lon": -89.9 }, "geometry": { "type": "Point", "coordinates": [ -89.9, 34.23333 ] } },
{ "type": "Feature", "properties": { "network": "SCAN", "station": "Goshute", "lat": 39.99003, "lon": -114.00025 }, "geometry": { "type": "Point", "coordinates": [ -114.00025, 39.99003 ] } },
{ "type": "Feature", "properties": { "network": "SCAN", "station": "Grantsville", "lat": 40.59089, "lon": -112.39258 }, "geometry": { "type": "Point", "coordinates": [ -112.39258, 40.59089 ] } },
{ "type": "Feature", "properties": { "network": "SCAN", "station": "GreenRiver", "lat": 39.01825, "lon": -110.16264 }, "geometry": { "type": "Point", "coordinates": [ -110.16264, 39.01825 ] } },
{ "type": "Feature", "properties": { "network": "SCAN", "station": "GrouseCreek", "lat": 41.77846, "lon": -113.82048 }, "geometry": { "type": "Point", "coordinates": [ -113.82048, 41.77846 ] } },
{ "type": "Feature", "properties": { "network": "SCAN", "station": "HalsCanyon", "lat": 38.59445, "lon": -113.75102 }, "geometry": { "type": "Point", "coordinates": [ -113.75102, 38.59445 ] } },
{ "type": "Feature", "properties": { "network": "SCAN", "station": "HarmsWay", "lat": 38.31347, "lon": -109.23998 }, "geometry": { "type": "Point", "coordinates": [ -109.23998, 38.31347 ] } },
{ "type": "Feature", "properties": { "network": "USCRN", "station": "Harrison-20-SSE", "lat": 42.4247, "lon": -103.7363 }, "geometry": { "type": "Point", "coordinates": [ -103.7363, 42.4247 ] } },
{ "type": "Feature", "properties": { "network": "SCAN", "station": "Hodges", "lat": 34.4448, "lon": -86.16557 }, "geometry": { "type": "Point", "coordinates": [ -86.16557, 34.4448 ] } },
{ "type": "Feature", "properties": { "network": "SCAN", "station": "Holden", "lat": 39.19216, "lon": -112.40155 }, "geometry": { "type": "Point", "coordinates": [ -112.40155, 39.19216 ] } },
{ "type": "Feature", "properties": { "network": "USCRN", "station": "Holly-Springs-4-N", "lat": 34.8223, "lon": -89.4348 }, "geometry": { "type": "Point", "coordinates": [ -89.4348, 34.8223 ] } },
{ "type": "Feature", "properties": { "network": "SCAN", "station": "HubbardBrook", "lat": 43.94843, "lon": -71.72644 }, "geometry": { "type": "Point", "coordinates": [ -71.72644, 43.94843 ] } },
{ "type": "Feature", "properties": { "network": "SCAN", "station": "IsbellFarms", "lat": 34.81982, "lon": -87.98685 }, "geometry": { "type": "Point", "coordinates": [ -87.98685, 34.81982 ] } },
{ "type": "Feature", "properties": { "network": "USCRN", "station": "Ithaca-13-E", "lat": 42.4401, "lon": -76.2462 }, "geometry": { "type": "Point", "coordinates": [ -76.2462, 42.4401 ] } },
{ "type": "Feature", "properties": { "network": "USCRN", "station": "Jamestown-38-WSW", "lat": 46.7702, "lon": -99.4778 }, "geometry": { "type": "Point", "coordinates": [ -99.4778, 46.7702 ] } },
{ "type": "Feature", "properties": { "network": "USCRN", "station": "John-Day-35-WNW", "lat": 44.556, "lon": -119.6459 }, "geometry": { "type": "Point", "coordinates": [ -119.6459, 44.556 ] } },
{ "type": "Feature", "properties": { "network": "SCAN", "station": "JohnsonFarm", "lat": 40.37042, "lon": -101.7201 }, "geometry": { "type": "Point", "coordinates": [ -101.7201, 40.37042 ] } },
{ "type": "Feature", "properties": { "network": "USCRN", "station": "Joplin-24-N", "lat": 37.4277, "lon": -94.5829 }, "geometry": { "type": "Point", "coordinates": [ -94.5829, 37.4277 ] } },
{ "type": "Feature", "properties": { "network": "SCAN", "station": "Jordan", "lat": 47.522, "lon": -107.12731 }, "geometry": { "type": "Point", "coordinates": [ -107.12731, 47.522 ] } },
{ "type": "Feature", "properties": { "network": "SCAN", "station": "JordanValleyCwma", "lat": 42.94863, "lon": -117.0106 }, "geometry": { "type": "Point", "coordinates": [ -117.0106, 42.94863 ] } },
{ "type": "Feature", "properties": { "network": "SCAN", "station": "JornadaExpRange", "lat": 32.5566, "lon": -106.69997 }, "geometry": { "type": "Point", "coordinates": [ -106.69997, 32.5566 ] } },
{ "type": "Feature", "properties": { "network": "SCAN", "station": "JournaganRanch", "lat": 36.9973, "lon": -92.2594 }, "geometry": { "type": "Point", "coordinates": [ -92.2594, 36.9973 ] } },
{ "type": "Feature", "properties": { "network": "USCRN", "station": "Kingston-1-NW", "lat": 41.4911, "lon": -71.5413 }, "geometry": { "type": "Point", "coordinates": [ -71.5413, 41.4911 ] } },
{ "type": "Feature", "properties": { "network": "USCRN", "station": "Kingston-1-W", "lat": 41.4782, "lon": -71.5417 }, "geometry": { "type": "Point", "coordinates": [ -71.5417, 41.4782 ] } },
{ "type": "Feature", "properties": { "network": "SCAN", "station": "Kingsville", "lat": 27.54945, "lon": -97.88223 }, "geometry": { "type": "Point", "coordinates": [ -97.88223, 27.54945 ] } },
{ "type": "Feature", "properties": { "network": "SCAN", "station": "KnoxCity", "lat": 33.44635, "lon": -99.86657 }, "geometry": { "type": "Point", "coordinates": [ -99.86657, 33.44635 ] } },
{ "type": "Feature", "properties": { "network": "SCAN", "station": "KoptisFarms", "lat": 30.5238, "lon": -87.69797 }, "geometry": { "type": "Point", "coordinates": [ -87.69797, 30.5238 ] } },
{ "type": "Feature", "properties": { "network": "SCAN", "station": "Ku-Nesa", "lat": 39.05141, "lon": -95.19128 }, "geometry": { "type": "Point", "coordinates": [ -95.19128, 39.05141 ] } },
{ "type": "Feature", "properties": { "network": "SCAN", "station": "KyleCanyon", "lat": 36.26527, "lon": -115.60852 }, "geometry": { "type": "Point", "coordinates": [ -115.60852, 36.26527 ] } },
{ "type": "Feature", "properties": { "network": "USCRN", "station": "La-Junta-17-WSW", "lat": 37.8639, "lon": -103.8224 }, "geometry": { "type": "Point", "coordinates": [ -103.8224, 37.8639 ] } },
{ "type": "Feature", "properties": { "network": "USCRN", "station": "Lafayette-13-SE", "lat": 30.0918, "lon": -91.8731 }, "geometry": { "type": "Point", "coordinates": [ -91.8731, 30.0918 ] } },
{ "type": "Feature", "properties": { "network": "USCRN", "station": "Lander-11-SSE", "lat": 42.6754, "lon": -108.6686 }, "geometry": { "type": "Point", "coordinates": [ -108.6686, 42.6754 ] } },
{ "type": "Feature", "properties": { "network": "USCRN", "station": "Las-Cruces-20-N", "lat": 32.6137, "lon": -106.7414 }, "geometry": { "type": "Point", "coordinates": [ -106.7414, 32.6137 ] } },
{ "type": "Feature", "properties": { "network": "SCAN", "station": "Lehman", "lat": 33.62647, "lon": -102.7453 }, "geometry": { "type": "Point", "coordinates": [ -102.7453, 33.62647 ] } },
{ "type": "Feature", "properties": { "network": "SCAN", "station": "Levelland", "lat": 33.55125, "lon": -102.37392 }, "geometry": { "type": "Point", "coordinates": [ -102.37392, 33.55125 ] } },
{ "type": "Feature", "properties": { "network": "USCRN", "station": "Lewistown-42-WSW", "lat": 46.8847, "lon": -110.2895 }, "geometry": { "type": "Point", "coordinates": [ -110.2895, 46.8847 ] } },
{ "type": "Feature", "properties": { "network": "USCRN", "station": "Limestone-4-NNW", "lat": 46.9601, "lon": -67.8833 }, "geometry": { "type": "Point", "coordinates": [ -67.8833, 46.9601 ] } },
{ "type": "Feature", "properties": { "network": "USCRN", "station": "Lincoln-11-SW", "lat": 40.6954, "lon": -96.8541 }, "geometry": { "type": "Point", "coordinates": [ -96.8541, 40.6954 ] } },
{ "type": "Feature", "properties": { "network": "USCRN", "station": "Lincoln-8-ENE", "lat": 40.8484, "lon": -96.5651 }, "geometry": { "type": "Point", "coordinates": [ -96.5651, 40.8484 ] } },
{ "type": "Feature", "properties": { "network": "SCAN", "station": "Lind#1", "lat": 47.0, "lon": -118.56667 }, "geometry": { "type": "Point", "coordinates": [ -118.56667, 47.0 ] } },
{ "type": "Feature", "properties": { "network": "SCAN", "station": "Lindsay", "lat": 47.21415, "lon": -105.18702 }, "geometry": { "type": "Point", "coordinates": [ -105.18702, 47.21415 ] } },
{ "type": "Feature", "properties": { "network": "SCAN", "station": "LittleRedFox", "lat": 40.17957, "lon": -110.30464 }, "geometry": { "type": "Point", "coordinates": [ -110.30464, 40.17957 ] } },
{ "type": "Feature", "properties": { "network": "SCAN", "station": "LittleRiver", "lat": 31.5, "lon": -83.55 }, "geometry": { "type": "Point", "coordinates": [ -83.55, 31.5 ] } },
{ "type": "Feature", "properties": { "network": "SCAN", "station": "Livingston-UWA", "lat": 32.608, "lon": -88.19743 }, "geometry": { "type": "Point", "coordinates": [ -88.19743, 32.608 ] } },
{ "type": "Feature", "properties": { "network": "USCRN", "station": "Los-Alamos-13-W", "lat": 35.8584, "lon": -106.5214 }, "geometry": { "type": "Point", "coordinates": [ -106.5214, 35.8584 ] } },
{ "type": "Feature", "properties": { "network": "SCAN", "station": "LosLunasPMC", "lat": 34.7715, "lon": -106.76288 }, "geometry": { "type": "Point", "coordinates": [ -106.76288, 34.7715 ] } },
{ "type": "Feature", "properties": { "network": "SCAN", "station": "LovellSummit", "lat": 36.16555, "lon": -115.61195 }, "geometry": { "type": "Point", "coordinates": [ -115.61195, 36.16555 ] } },
{ "type": "Feature", "properties": { "network": "SCAN", "station": "LovelockNNR", "lat": 40.09247, "lon": -118.49345 }, "geometry": { "type": "Point", "coordinates": [ -118.49345, 40.09247 ] } },
{ "type": "Feature", "properties": { "network": "SCAN", "station": "LyeBrook", "lat": 43.05753, "lon": -73.03834 }, "geometry": { "type": "Point", "coordinates": [ -73.03834, 43.05753 ] } },
{ "type": "Feature", "properties": { "network": "SCAN", "station": "MahantangoCk", "lat": 40.66667, "lon": -76.66667 }, "geometry": { "type": "Point", "coordinates": [ -76.66667, 40.66667 ] } },
{ "type": "Feature", "properties": { "network": "SCAN", "station": "MammothCave", "lat": 37.1864, "lon": -86.04093 }, "geometry": { "type": "Point", "coordinates": [ -86.04093, 37.1864 ] } },
{ "type": "Feature", "properties": { "network": "SCAN", "station": "Mandan#1", "lat": 46.76667, "lon": -100.91667 }, "geometry": { "type": "Point", "coordinates": [ -100.91667, 46.76667 ] } },
{ "type": "Feature", "properties": { "network": "SCAN", "station": "Manderfield", "lat": 38.36649, "lon": -112.64291 }, "geometry": { "type": "Point", "coordinates": [ -112.64291, 38.36649 ] } },
{ "type": "Feature", "properties": { "network": "USCRN", "station": "Manhattan-6-SSW", "lat": 39.1027, "lon": -96.6098 }, "geometry": { "type": "Point", "coordinates": [ -96.6098, 39.1027 ] } },
{ "type": "Feature", "properties": { "network": "SCAN", "station": "MarbleCreek", "lat": 37.77767, "lon": -118.4209 }, "geometry": { "type": "Point", "coordinates": [ -118.4209, 37.77767 ] } },
{ "type": "Feature", "properties": { "network": "SCAN", "station": "MascomaRiver", "lat": 43.7756, "lon": -72.02593 }, "geometry": { "type": "Point", "coordinates": [ -72.02593, 43.7756 ] } },
{ "type": "Feature", "properties": { "network": "SCAN", "station": "Mason#1", "lat": 40.31667, "lon": -89.9 }, "geometry": { "type": "Point", "coordinates": [ -89.9, 40.31667 ] } },
{ "type": "Feature", "properties": { "network": "SCAN", "station": "Mayday", "lat": 32.86153, "lon": -90.51989 }, "geometry": { "type": "Point", "coordinates": [ -90.51989, 32.86153 ] } },
{ "type": "Feature", "properties": { "network": "SCAN", "station": "McAllisterFarm", "lat": 35.06445, "lon": -86.59137 }, "geometry": { "type": "Point", "coordinates": [ -86.59137, 35.06445 ] } },
{ "type": "Feature", "properties": { "network": "USCRN", "station": "McClellanville-7-NE", "lat": 33.1532, "lon": -79.3637 }, "geometry": { "type": "Point", "coordinates": [ -79.3637, 33.1532 ] } },
{ "type": "Feature", "properties": { "network": "SCAN", "station": "MccrackenMesa", "lat": 37.44671, "lon": -109.33776 }, "geometry": { "type": "Point", "coordinates": [ -109.33776, 37.44671 ] } },
{ "type": "Feature", "properties": { "network": "USCRN", "station": "Medora-7-E", "lat": 46.8946, "lon": -103.3769 }, "geometry": { "type": "Point", "coordinates": [ -103.3769, 46.8946 ] } },
{ "type": "Feature", "properties": { "network": "USCRN", "station": "Merced-23-WSW", "lat": 37.2381, "lon": -120.8825 }, "geometry": { "type": "Point", "coordinates": [ -120.8825, 37.2381 ] } },
{ "type": "Feature", "properties": { "network": "USCRN", "station": "Mercury-3-SSW", "lat": 36.624, "lon": -116.0225 }, "geometry": { "type": "Point", "coordinates": [ -116.0225, 36.624 ] } },
{ "type": "Feature", "properties": { "network": "SCAN", "station": "Milford", "lat": 38.34196, "lon": -113.01053 }, "geometry": { "type": "Point", "coordinates": [ -113.01053, 38.34196 ] } },
{ "type": "Feature", "properties": { "network": "USCRN", "station": "Millbrook-3-W", "lat": 41.7857, "lon": -73.7422 }, "geometry": { "type": "Point", "coordinates": [ -73.7422, 41.7857 ] } },
{ "type": "Feature", "properties": { "network": "SCAN", "station": "Moccasin", "lat": 47.05818, "lon": -109.95082 }, "geometry": { "type": "Point", "coordinates": [ -109.95082, 47.05818 ] } },
{ "type": "Feature", "properties": { "network": "SCAN", "station": "MollyCaren#1", "lat": 39.95, "lon": -83.45 }, "geometry": { "type": "Point", "coordinates": [ -83.45, 39.95 ] } },
{ "type": "Feature", "properties": { "network": "USCRN", "station": "Monahans-6-ENE", "lat": 31.6219, "lon": -102.8071 }, "geometry": { "type": "Point", "coordinates": [ -102.8071, 31.6219 ] } },
{ "type": "Feature", "properties": { "network": "SCAN", "station": "MonoclineRidge", "lat": 36.54417, "lon": -120.55463 }, "geometry": { "type": "Point", "coordinates": [ -120.55463, 36.54417 ] } },
{ "type": "Feature", "properties": { "network": "USCRN", "station": "Monroe-26-N", "lat": 32.8833, "lon": -92.1165 }, "geometry": { "type": "Point", "coordinates": [ -92.1165, 32.8833 ] } },
{ "type": "Feature", "properties": { "network": "USCRN", "station": "Montrose-11-ENE", "lat": 38.544, "lon": -107.6928 }, "geometry": { "type": "Point", "coordinates": [ -107.6928, 38.544 ] } },
{ "type": "Feature", "properties": { "network": "USCRN", "station": "Moose-1-NNE", "lat": 43.6615, "lon": -110.712 }, "geometry": { "type": "Point", "coordinates": [ -110.712, 43.6615 ] } },
{ "type": "Feature", "properties": { "network": "SCAN", "station": "Morgan", "lat": 40.9999, "lon": -111.68555 }, "geometry": { "type": "Point", "coordinates": [ -111.68555, 40.9999 ] } },
{ "type": "Feature", "properties": { "network": "SCAN", "station": "MorrisFarms", "lat": 32.41222, "lon": -85.91028 }, "geometry": { "type": "Point", "coordinates": [ -85.91028, 32.41222 ] } },
{ "type": "Feature", "properties": { "network": "SCAN", "station": "MountMansfield", "lat": 44.53509, "lon": -72.83451 }, "geometry": { "type": "Point", "coordinates": [ -72.83451, 44.53509 ] } },
{ "type": "Feature", "properties": { "network": "SCAN", "station": "MountainHome", "lat": 40.37263, "lon": -110.40602 }, "geometry": { "type": "Point", "coordinates": [ -110.40602, 40.37263 ] } },
{ "type": "Feature", "properties": { "network": "SCAN", "station": "MtVernon", "lat": 37.06667, "lon": -93.88333 }, "geometry": { "type": "Point", "coordinates": [ -93.88333, 37.06667 ] } },
{ "type": "Feature", "properties": { "network": "USCRN", "station": "Muleshoe-19-S", "lat": 33.9557, "lon": -102.774 }, "geometry": { "type": "Point", "coordinates": [ -102.774, 33.9557 ] } },
{ "type": "Feature", "properties": { "network": "USCRN", "station": "Murphy-10-W", "lat": 43.2044, "lon": -116.7505 }, "geometry": { "type": "Point", "coordinates": [ -116.7505, 43.2044 ] } },
{ "type": "Feature", "properties": { "network": "SCAN", "station": "NPiedmontArec", "lat": 38.23333, "lon": -78.11667 }, "geometry": { "type": "Point", "coordinates": [ -78.11667, 38.23333 ] } },
{ "type": "Feature", "properties": { "network": "USCRN", "station": "Necedah-5-WNW", "lat": 44.0604, "lon": -90.1737 }, "geometry": { "type": "Point", "coordinates": [ -90.1737, 44.0604 ] } },
{ "type": "Feature", "properties": { "network": "SCAN", "station": "Nephi", "lat": 39.64554, "lon": -111.87044 }, "geometry": { "type": "Point", "coordinates": [ -111.87044, 39.64554 ] } },
{ "type": "Feature", "properties": { "network": "USCRN", "station": "Newton-11-SW", "lat": 31.1923, "lon": -84.4465 }, "geometry": { "type": "Point", "coordinates": [ -84.4465, 31.1923 ] } },
{ "type": "Feature", "properties": { "network": "USCRN", "station": "Newton-5-ENE", "lat": 32.3378, "lon": -89.0703 }, "geometry": { "type": "Point", "coordinates": [ -89.0703, 32.3378 ] } },
{ "type": "Feature", "properties": { "network": "USCRN", "station": "Newton-8-W", "lat": 31.3127, "lon": -84.4706 }, "geometry": { "type": "Point", "coordinates": [ -84.4706, 31.3127 ] } },
{ "type": "Feature", "properties": { "network": "SCAN", "station": "NorthIssaquena", "lat": 32.9972, "lon": -91.05993 }, "geometry": { "type": "Point", "coordinates": [ -91.05993, 32.9972 ] } },
{ "type": "Feature", "properties": { "network": "USCRN", "station": "Northgate-5-ESE", "lat": 48.9676, "lon": -102.1702 }, "geometry": { "type": "Point", "coordinates": [ -102.1702, 48.9676 ] } },
{ "type": "Feature", "properties": { "network": "SCAN", "station": "Nunn#1", "lat": 40.85989, "lon": -104.74033 }, "geometry": { "type": "Point", "coordinates": [ -104.74033, 40.85989 ] } },
{ "type": "Feature", "properties": { "network": "USCRN", "station": "Nunn-7-NNE", "lat": 40.8066, "lon": -104.7552 }, "geometry": { "type": "Point", "coordinates": [ -104.7552, 40.8066 ] } },
{ "type": "Feature", "properties": { "network": "USCRN", "station": "Oakley-19-SSW", "lat": 38.8701, "lon": -100.9627 }, "geometry": { "type": "Point", "coordinates": [ -100.9627, 38.8701 ] } },
{ "type": "Feature", "properties": { "network": "USCRN", "station": "Old-Town-2-W", "lat": 44.9281, "lon": -68.7006 }, "geometry": { "type": "Point", "coordinates": [ -68.7006, 44.9281 ] } },
{ "type": "Feature", "properties": { "network": "SCAN", "station": "Onward", "lat": 32.75358, "lon": -90.94208 }, "geometry": { "type": "Point", "coordinates": [ -90.94208, 32.75358 ] } },
{ "type": "Feature", "properties": { "network": "SCAN", "station": "OrchardRangeSite", "lat": 43.32268, "lon": -115.99643 }, "geometry": { "type": "Point", "coordinates": [ -115.99643, 43.32268 ] } },
{ "type": "Feature", "properties": { "network": "USCRN", "station": "Palestine-6-WNW", "lat": 31.7796, "lon": -95.7232 }, "geometry": { "type": "Point", "coordinates": [ -95.7232, 31.7796 ] } },
{ "type": "Feature", "properties": { "network": "SCAN", "station": "Panguitch", "lat": 37.86975, "lon": -112.43437 }, "geometry": { "type": "Point", "coordinates": [ -112.43437, 37.86975 ] } },
{ "type": "Feature", "properties": { "network": "USCRN", "station": "Panther-Junction-2-N", "lat": 29.3483, "lon": -103.2093 }, "geometry": { "type": "Point", "coordinates": [ -103.2093, 29.3483 ] } },
{ "type": "Feature", "properties": { "network": "SCAN", "station": "ParkValley", "lat": 41.77318, "lon": -113.28596 }, "geometry": { "type": "Point", "coordinates": [ -113.28596, 41.77318 ] } },
{ "type": "Feature", "properties": { "network": "SCAN", "station": "PeeDee", "lat": 34.3, "lon": -79.73333 }, "geometry": { "type": "Point", "coordinates": [ -79.73333, 34.3 ] } },
{ "type": "Feature", "properties": { "network": "SCAN", "station": "PerdidoRivFarms", "lat": 31.10923, "lon": -87.55277 }, "geometry": { "type": "Point", "coordinates": [ -87.55277, 31.10923 ] } },
{ "type": "Feature", "properties": { "network": "SCAN", "station": "Perthshire", "lat": 33.9737, "lon": -90.90496 }, "geometry": { "type": "Point", "coordinates": [ -90.90496, 33.9737 ] } },
{ "type": "Feature", "properties": { "network": "SCAN", "station": "Phillipsburg", "lat": 39.78638, "lon": -99.32953 }, "geometry": { "type": "Point", "coordinates": [ -99.32953, 39.78638 ] } },
{ "type": "Feature", "properties": { "network": "USCRN", "station": "Pierre-24-S", "lat": 44.0194, "lon": -100.353 }, "geometry": { "type": "Point", "coordinates": [ -100.353, 44.0194 ] } },
{ "type": "Feature", "properties": { "network": "SCAN", "station": "PineNut", "lat": 36.57285, "lon": -115.20422 }, "geometry": { "type": "Point", "coordinates": [ -115.20422, 36.57285 ] } },
{ "type": "Feature", "properties": { "network": "USCRN", "station": "Port-Aransas-32-NNE", "lat": 28.3045, "lon": -96.823 }, "geometry": { "type": "Point", "coordinates": [ -96.823, 28.3045 ] } },
{ "type": "Feature", "properties": { "network": "SCAN", "station": "PowderMill", "lat": 39.01667, "lon": -76.85 }, "geometry": { "type": "Point", "coordinates": [ -76.85, 39.01667 ] } },
{ "type": "Feature", "properties": { "network": "SCAN", "station": "PowellGardens", "lat": 38.86667, "lon": -94.03333 }, "geometry": { "type": "Point", "coordinates": [ -94.03333, 38.86667 ] } },
{ "type": "Feature", "properties": { "network": "SCAN", "station": "PrairieView#1", "lat": 30.08333, "lon": -95.98333 }, "geometry": { "type": "Point", "coordinates": [ -95.98333, 30.08333 ] } },
{ "type": "Feature", "properties": { "network": "SCAN", "station": "Price", "lat": 39.53288, "lon": -110.80604 }, "geometry": { "type": "Point", "coordinates": [ -110.80604, 39.53288 ] } },
{ "type": "Feature", "properties": { "network": "SCAN", "station": "Princeton#1", "lat": 37.1, "lon": -87.83333 }, "geometry": { "type": "Point", "coordinates": [ -87.83333, 37.1 ] } },
{ "type": "Feature", "properties": { "network": "USCRN", "station": "Quinault-4-NE", "lat": 47.5139, "lon": -123.812 }, "geometry": { "type": "Point", "coordinates": [ -123.812, 47.5139 ] } },
{ "type": "Feature", "properties": { "network": "USCRN", "station": "Redding-12-WNW", "lat": 40.6507, "lon": -122.6068 }, "geometry": { "type": "Point", "coordinates": [ -122.6068, 40.6507 ] } },
{ "type": "Feature", "properties": { "network": "SCAN", "station": "ReynoldsHomestead", "lat": 36.63333, "lon": -80.13333 }, "geometry": { "type": "Point", "coordinates": [ -80.13333, 36.63333 ] } },
{ "type": "Feature", "properties": { "network": "SCAN", "station": "Riesel", "lat": 31.47907, "lon": -96.88162 }, "geometry": { "type": "Point", "coordinates": [ -96.88162, 31.47907 ] } },
{ "type": "Feature", "properties": { "network": "USCRN", "station": "Riley-10-WSW", "lat": 43.4711, "lon": -119.6917 }, "geometry": { "type": "Point", "coordinates": [ -119.6917, 43.4711 ] } },
{ "type": "Feature", "properties": { "network": "SCAN", "station": "RiverRoadFarms", "lat": 31.01912, "lon": -85.03693 }, "geometry": { "type": "Point", "coordinates": [ -85.03693, 31.01912 ] } },
{ "type": "Feature", "properties": { "network": "SCAN", "station": "RockSpringsPa", "lat": 40.71667, "lon": -77.93333 }, "geometry": { "type": "Point", "coordinates": [ -77.93333, 40.71667 ] } },
{ "type": "Feature", "properties": { "network": "SCAN", "station": "RogersFarm#1", "lat": 40.85, "lon": -96.46667 }, "geometry": { "type": "Point", "coordinates": [ -96.46667, 40.85 ] } },
{ "type": "Feature", "properties": { "network": "USCRN", "station": "Salem-10-W", "lat": 37.6344, "lon": -91.7226 }, "geometry": { "type": "Point", "coordinates": [ -91.7226, 37.6344 ] } },
{ "type": "Feature", "properties": { "network": "SCAN", "station": "SanAngelo", "lat": 31.5496, "lon": -100.50748 }, "geometry": { "type": "Point", "coordinates": [ -100.50748, 31.5496 ] } },
{ "type": "Feature", "properties": { "network": "SCAN", "station": "SandHollow", "lat": 37.10516, "lon": -113.35615 }, "geometry": { "type": "Point", "coordinates": [ -113.35615, 37.10516 ] } },
{ "type": "Feature", "properties": { "network": "USCRN", "station": "Sandstone-6-W", "lat": 46.1135, "lon": -92.9936 }, "geometry": { "type": "Point", "coordinates": [ -92.9936, 46.1135 ] } },
{ "type": "Feature", "properties": { "network": "SCAN", "station": "SandyRidge", "lat": 33.65911, "lon": -90.57297 }, "geometry": { "type": "Point", "coordinates": [ -90.57297, 33.65911 ] } },
{ "type": "Feature", "properties": { "network": "USCRN", "station": "Santa-Barbara-11-W", "lat": 34.4141, "lon": -119.8796 }, "geometry": { "type": "Point", "coordinates": [ -119.8796, 34.4141 ] } },
{ "type": "Feature", "properties": { "network": "SCAN", "station": "Schell-Osage", "lat": 37.9872, "lon": -94.0364 }, "geometry": { "type": "Point", "coordinates": [ -94.0364, 37.9872 ] } },
{ "type": "Feature", "properties": { "network": "SCAN", "station": "Scott", "lat": 33.61962, "lon": -91.10184 }, "geometry": { "type": "Point", "coordinates": [ -91.10184, 33.61962 ] } },
{ "type": "Feature", "properties": { "network": "USCRN", "station": "Sebring-23-SSE", "lat": 27.1526, "lon": -81.3689 }, "geometry": { "type": "Point", "coordinates": [ -81.3689, 27.1526 ] } },
{ "type": "Feature", "properties": { "network": "SCAN", "station": "SellersLake#1", "lat": 29.1, "lon": -81.63333 }, "geometry": { "type": "Point", "coordinates": [ -81.63333, 29.1 ] } },
{ "type": "Feature", "properties": { "network": "SCAN", "station": "Selma", "lat": 32.40392, "lon": -86.89137 }, "geometry": { "type": "Point", "coordinates": [ -86.89137, 32.40392 ] } },
{ "type": "Feature", "properties": { "network": "USCRN", "station": "Selma-13-WNW", "lat": 32.4567, "lon": -87.2422 }, "geometry": { "type": "Point", "coordinates": [ -87.2422, 32.4567 ] } },
{ "type": "Feature", "properties": { "network": "SCAN", "station": "Sevilleta", "lat": 34.35813, "lon": -106.69127 }, "geometry": { "type": "Point", "coordinates": [ -106.69127, 34.35813 ] } },
{ "type": "Feature", "properties": { "network": "USCRN", "station": "Shabbona-5-NNE", "lat": 41.843, "lon": -88.8513 }, "geometry": { "type": "Point", "coordinates": [ -88.8513, 41.843 ] } },
{ "type": "Feature", "properties": { "network": "SCAN", "station": "ShadowMtns", "lat": 35.46607, "lon": -115.7151 }, "geometry": { "type": "Point", "coordinates": [ -115.7151, 35.46607 ] } },
{ "type": "Feature", "properties": { "network": "SCAN", "station": "ShagbarkHills", "lat": 42.43333, "lon": -95.76667 }, "geometry": { "type": "Point", "coordinates": [ -95.76667, 42.43333 ] } },
{ "type": "Feature", "properties": { "network": "SCAN", "station": "Shenandoah", "lat": 37.91667, "lon": -79.2 }, "geometry": { "type": "Point", "coordinates": [ -79.2, 37.91667 ] } },
{ "type": "Feature", "properties": { "network": "SCAN", "station": "Sidney", "lat": 47.77102, "lon": -104.247 }, "geometry": { "type": "Point", "coordinates": [ -104.247, 47.77102 ] } },
{ "type": "Feature", "properties": { "network": "SCAN", "station": "SilverCity", "lat": 33.0875, "lon": -90.51151 }, "geometry": { "type": "Point", "coordinates": [ -90.51151, 33.0875 ] } },
{ "type": "Feature", "properties": { "network": "USCRN", "station": "Sioux-Falls-14-NNE", "lat": 43.7346, "lon": -96.6222 }, "geometry": { "type": "Point", "coordinates": [ -96.6222, 43.7346 ] } },
{ "type": "Feature", "properties": { "network": "USCRN", "station": "Socorro-20-N", "lat": 34.3557, "lon": -106.8859 }, "geometry": { "type": "Point", "coordinates": [ -106.8859, 34.3557 ] } },
{ "type": "Feature", "properties": { "network": "SCAN", "station": "Spickard", "lat": 40.25, "lon": -93.71667 }, "geometry": { "type": "Point", "coordinates": [ -93.71667, 40.25 ] } },
{ "type": "Feature", "properties": { "network": "SCAN", "station": "SplitMountain", "lat": 40.39136, "lon": -109.35326 }, "geometry": { "type": "Point", "coordinates": [ -109.35326, 40.39136 ] } },
{ "type": "Feature", "properties": { "network": "USCRN", "station": "Spokane-17-SSW", "lat": 47.4174, "lon": -117.5264 }, "geometry": { "type": "Point", "coordinates": [ -117.5264, 47.4174 ] } },
{ "type": "Feature", "properties": { "network": "SCAN", "station": "Spooky", "lat": 37.51468, "lon": -111.26189 }, "geometry": { "type": "Point", "coordinates": [ -111.26189, 37.51468 ] } },
{ "type": "Feature", "properties": { "network": "USCRN", "station": "St.-Mary-1-SSW", "lat": 48.7412, "lon": -113.433 }, "geometry": { "type": "Point", "coordinates": [ -113.433, 48.7412 ] } },
{ "type": "Feature", "properties": { "network": "SCAN", "station": "StanleyFarm", "lat": 34.43333, "lon": -86.68333 }, "geometry": { "type": "Point", "coordinates": [ -86.68333, 34.43333 ] } },
{ "type": "Feature", "properties": { "network": "SCAN", "station": "Starkville", "lat": 33.47094, "lon": -88.78051 }, "geometry": { "type": "Point", "coordinates": [ -88.78051, 33.47094 ] } },
{ "type": "Feature", "properties": { "network": "SCAN", "station": "Stephenville", "lat": 32.24535, "lon": -98.19563 }, "geometry": { "type": "Point", "coordinates": [ -98.19563, 32.24535 ] } },
{ "type": "Feature", "properties": { "network": "USCRN", "station": "Stillwater-2-W", "lat": 36.1181, "lon": -97.0914 }, "geometry": { "type": "Point", "coordinates": [ -97.0914, 36.1181 ] } },
{ "type": "Feature", "properties": { "network": "USCRN", "station": "Stillwater-5-WNW", "lat": 36.1346, "lon": -97.1082 }, "geometry": { "type": "Point", "coordinates": [ -97.1082, 36.1346 ] } },
{ "type": "Feature", "properties": { "network": "USCRN", "station": "Stovepipe-Wells-1-SW", "lat": 36.602, "lon": -117.1449 }, "geometry": { "type": "Point", "coordinates": [ -117.1449, 36.602 ] } },
{ "type": "Feature", "properties": { "network": "SCAN", "station": "Stubblefield", "lat": 34.97018, "lon": -119.47831 }, "geometry": { "type": "Point", "coordinates": [ -119.47831, 34.97018 ] } },
{ "type": "Feature", "properties": { "network": "SCAN", "station": "SudduthFarms", "lat": 34.17973, "lon": -87.45618 }, "geometry": { "type": "Point", "coordinates": [ -87.45618, 34.17973 ] } },
{ "type": "Feature", "properties": { "network": "USCRN", "station": "Sundance-8-NNW", "lat": 44.5169, "lon": -104.4363 }, "geometry": { "type": "Point", "coordinates": [ -104.4363, 44.5169 ] } },
{ "type": "Feature", "properties": { "network": "SCAN", "station": "SunleafNursery", "lat": 41.79618, "lon": -81.07653 }, "geometry": { "type": "Point", "coordinates": [ -81.07653, 41.79618 ] } },
{ "type": "Feature", "properties": { "network": "SCAN", "station": "TableMountain", "lat": 45.80272, "lon": -111.58655 }, "geometry": { "type": "Point", "coordinates": [ -111.58655, 45.80272 ] } },
{ "type": "Feature", "properties": { "network": "SCAN", "station": "Tidewater#1", "lat": 35.86667, "lon": -76.65 }, "geometry": { "type": "Point", "coordinates": [ -76.65, 35.86667 ] } },
{ "type": "Feature", "properties": { "network": "SCAN", "station": "TidewaterArec", "lat": 36.68333, "lon": -76.76667 }, "geometry": { "type": "Point", "coordinates": [ -76.76667, 36.68333 ] } },
{ "type": "Feature", "properties": { "network": "USCRN", "station": "Titusville-7-E", "lat": 28.6159, "lon": -80.6929 }, "geometry": { "type": "Point", "coordinates": [ -80.6929, 28.6159 ] } },
{ "type": "Feature", "properties": { "network": "SCAN", "station": "TncFortBayou", "lat": 30.4712, "lon": -88.74162 }, "geometry": { "type": "Point", "coordinates": [ -88.74162, 30.4712 ] } },
{ "type": "Feature", "properties": { "network": "SCAN", "station": "Torrington#1", "lat": 42.06667, "lon": -104.13333 }, "geometry": { "type": "Point", "coordinates": [ -104.13333, 42.06667 ] } },
{ "type": "Feature", "properties": { "network": "SCAN", "station": "TroughSprings", "lat": 36.37355, "lon": -115.78127 }, "geometry": { "type": "Point", "coordinates": [ -115.78127, 36.37355 ] } },
{ "type": "Feature", "properties": { "network": "USCRN", "station": "Tucson-11-W", "lat": 32.2395, "lon": -111.1696 }, "geometry": { "type": "Point", "coordinates": [ -111.1696, 32.2395 ] } },
{ "type": "Feature", "properties": { "network": "SCAN", "station": "TuleValley", "lat": 39.23724, "lon": -113.45866 }, "geometry": { "type": "Point", "coordinates": [ -113.45866, 39.23724 ] } },
{ "type": "Feature", "properties": { "network": "SCAN", "station": "Tunica", "lat": 34.6764, "lon": -90.41142 }, "geometry": { "type": "Point", "coordinates": [ -90.41142, 34.6764 ] } },
{ "type": "Feature", "properties": { "network": "SCAN", "station": "Tuskegee", "lat": 32.43455, "lon": -85.74802 }, "geometry": { "type": "Point", "coordinates": [ -85.74802, 32.43455 ] } },
{ "type": "Feature", "properties": { "network": "SCAN", "station": "UWPlatteville", "lat": 42.70785, "lon": -90.3899 }, "geometry": { "type": "Point", "coordinates": [ -90.3899, 42.70785 ] } },
{ "type": "Feature", "properties": { "network": "SCAN", "station": "Uapb-Earle", "lat": 35.27732, "lon": -90.45031 }, "geometry": { "type": "Point", "coordinates": [ -90.45031, 35.27732 ] } },
{ "type": "Feature", "properties": { "network": "SCAN", "station": "Uapb-LonokeFarm", "lat": 34.85, "lon": -91.88333 }, "geometry": { "type": "Point", "coordinates": [ -91.88333, 34.85 ] } },
{ "type": "Feature", "properties": { "network": "SCAN", "station": "Uapb-Marianna", "lat": 34.7849, "lon": -90.81769 }, "geometry": { "type": "Point", "coordinates": [ -90.81769, 34.7849 ] } },
{ "type": "Feature", "properties": { "network": "SCAN", "station": "UapbCampus-PB", "lat": 34.25188, "lon": -92.02632 }, "geometry": { "type": "Point", "coordinates": [ -92.02632, 34.25188 ] } },
{ "type": "Feature", "properties": { "network": "SCAN", "station": "UapbDewitt", "lat": 34.27788, "lon": -91.35017 }, "geometry": { "type": "Point", "coordinates": [ -91.35017, 34.27788 ] } },
{ "type": "Feature", "properties": { "network": "SCAN", "station": "UapbPointRemove", "lat": 35.20842, "lon": -92.92462 }, "geometry": { "type": "Point", "coordinates": [ -92.92462, 35.20842 ] } },
{ "type": "Feature", "properties": { "network": "SCAN", "station": "Uvalde", "lat": 29.21578, "lon": -99.75517 }, "geometry": { "type": "Point", "coordinates": [ -99.75517, 29.21578 ] } },
{ "type": "Feature", "properties": { "network": "SCAN", "station": "Vance", "lat": 34.06301, "lon": -90.35843 }, "geometry": { "type": "Point", "coordinates": [ -90.35843, 34.06301 ] } },
{ "type": "Feature", "properties": { "network": "SCAN", "station": "Vermillion", "lat": 37.19061, "lon": -112.19252 }, "geometry": { "type": "Point", "coordinates": [ -112.19252, 37.19061 ] } },
{ "type": "Feature", "properties": { "network": "SCAN", "station": "Vernon", "lat": 34.01635, "lon": -99.2464 }, "geometry": { "type": "Point", "coordinates": [ -99.2464, 34.01635 ] } },
{ "type": "Feature", "properties": { "network": "USCRN", "station": "Versailles-3-NNW", "lat": 38.0945, "lon": -84.7465 }, "geometry": { "type": "Point", "coordinates": [ -84.7465, 38.0945 ] } },
{ "type": "Feature", "properties": { "network": "SCAN", "station": "Violett", "lat": 48.43578, "lon": -111.18423 }, "geometry": { "type": "Point", "coordinates": [ -111.18423, 48.43578 ] } },
{ "type": "Feature", "properties": { "network": "SCAN", "station": "Wabeno#1", "lat": 45.46667, "lon": -88.58333 }, "geometry": { "type": "Point", "coordinates": [ -88.58333, 45.46667 ] } },
{ "type": "Feature", "properties": { "network": "SCAN", "station": "Wakulla#1", "lat": 30.3, "lon": -84.41667 }, "geometry": { "type": "Point", "coordinates": [ -84.41667, 30.3 ] } },
{ "type": "Feature", "properties": { "network": "SCAN", "station": "WalnutGulch#1", "lat": 31.73333, "lon": -110.05 }, "geometry": { "type": "Point", "coordinates": [ -110.05, 31.73333 ] } },
{ "type": "Feature", "properties": { "network": "SCAN", "station": "Watkinsville#1", "lat": 33.88333, "lon": -83.43333 }, "geometry": { "type": "Point", "coordinates": [ -83.43333, 33.88333 ] } },
{ "type": "Feature", "properties": { "network": "USCRN", "station": "Watkinsville-5-SSE", "lat": 33.7837, "lon": -83.3896 }, "geometry": { "type": "Point", "coordinates": [ -83.3896, 33.7837 ] } },
{ "type": "Feature", "properties": { "network": "SCAN", "station": "Wedowee", "lat": 33.33168, "lon": -85.51818 }, "geometry": { "type": "Point", "coordinates": [ -85.51818, 33.33168 ] } },
{ "type": "Feature", "properties": { "network": "SCAN", "station": "Weslaco", "lat": 26.15553, "lon": -97.95927 }, "geometry": { "type": "Point", "coordinates": [ -97.95927, 26.15553 ] } },
{ "type": "Feature", "properties": { "network": "SCAN", "station": "WestSummit", "lat": 38.01394, "lon": -109.12745 }, "geometry": { "type": "Point", "coordinates": [ -109.12745, 38.01394 ] } },
{ "type": "Feature", "properties": { "network": "USCRN", "station": "Whitman-5-ENE", "lat": 42.068, "lon": -101.445 }, "geometry": { "type": "Point", "coordinates": [ -101.445, 42.068 ] } },
{ "type": "Feature", "properties": { "network": "USCRN", "station": "Williams-35-NNW", "lat": 35.7552, "lon": -112.3374 }, "geometry": { "type": "Point", "coordinates": [ -112.3374, 35.7552 ] } },
{ "type": "Feature", "properties": { "network": "USCRN", "station": "Wolf-Point-29-ENE", "lat": 48.3082, "lon": -105.1018 }, "geometry": { "type": "Point", "coordinates": [ -105.1018, 48.3082 ] } },
{ "type": "Feature", "properties": { "network": "USCRN", "station": "Wolf-Point-34-NE", "lat": 48.4887, "lon": -105.2096 }, "geometry": { "type": "Point", "coordinates": [ -105.2096, 48.4887 ] } },
{ "type": "Feature", "properties": { "network": "SCAN", "station": "Wtars", "lat": 34.9, "lon": -86.53333 }, "geometry": { "type": "Point", "coordinates": [ -86.53333, 34.9 ] } },
{ "type": "Feature", "properties": { "network": "USCRN", "station": "Yosemite-Village-12-W", "lat": 37.7592, "lon": -119.8208 }, "geometry": { "type": "Point", "coordinates": [ -119.8208, 37.7592 ] } },
{ "type": "Feature", "properties": { "network": "SCAN", "station": "YoumansFarm", "lat": 32.66667, "lon": -81.2 }, "geometry": { "type": "Point", "coordinates": [ -81.2, 32.66667 ] } },
{ "type": "Feature", "properties": { "network": "USCRN", "station": "Yuma-27-ENE", "lat": 32.835, "lon": -114.1884 }, "geometry": { "type": "Point", "coordinates": [ -114.1884, 32.835 ] } }
]
}
